BEIDOU-3 G4             
1 56564U 23066A   26072.17398353 -.00000111  00000+0  00000+0 0  9991
2 56564   0.6336 312.1088 0002647 153.4351 287.9442  1.00272296 10433
